NORAD_CAT_ID,OBJECT_NAME,OBJECT_TYPE,EPOCH,MEAN_MOTION,ECCENTRICITY,INCLINATION,RA_OF_ASC_NODE,ARG_OF_PERICENTER,MEAN_ANOMALY,BSTAR,MEAN_MOTION_DOT,MEAN_MOTION_DDOT,TLE_LINE0,TLE_LINE1,TLE_LINE2,SEMIMAJOR_AXIS,PERIOD,APOGEE,PERIGEE,DECAYED
51978.0,STARLINK-3666,PAYLOAD,2023-02-03 08:22:47,15.09767192,0.0002145,53.2164,73.3752,69.9918,290.1305,0.0015194,0.00024601,0.0,0 STARLINK-3666,1 51978U 22025Y   23034.34916256  .00024601  00000-0  15194-2 0  9994,2 51978  53.2164  73.3752 0002145  69.9918 290.1305 15.09767192 50411,6915.048,95.379,538.396,535.43,0.0
51978.0,STARLINK-3666,PAYLOAD,2023-02-04 08:12:40,15.09816872,0.0002294,53.2167,68.9114,75.7993,284.3254,0.001637,0.00026571,0.0,0 STARLINK-3666,1 51978U 22025Y   23035.34213539  .00026571  00000-0  16370-2 0  9994,2 51978  53.2167  68.9114 0002294  75.7993 284.3254 15.09816872 51654,6914.896,95.376,538.347,535.175,0.0
51978.0,STARLINK-3666,PAYLOAD,2023-02-04 09:47:59,15.09819875,0.0002273,53.2166,68.6139,73.9517,286.1726,0.0016185,0.00026269,0.0,0 STARLINK-3666,1 51978U 22025Y   23035.40833250  .00026269  00000-0  16185-2 0  9997,2 51978  53.2166  68.6139 0002273  73.9517 286.1726 15.09819875 50576,6914.887,95.376,538.324,535.18,0.0
51978.0,STARLINK-3666,PAYLOAD,2023-02-04 19:19:57,15.09813057,0.000249,53.2175,66.8284,71.707,288.4194,0.0011045,0.00017809,0.0,0 STARLINK-3666,1 51978U 22025Y   23035.80552114  .00017809  00000-0  11045-2 0  9998,2 51978  53.2175  66.8284 0002490  71.7070 288.4194 15.09813057 51726,6914.908,95.376,538.495,535.051,0.0
51978.0,STARLINK-3666,PAYLOAD,2023-02-05 01:41:15,15.09802495,0.0002828,53.2163,65.6406,71.0754,289.0545,0.00050908,8.038e-05,0.0,0 STARLINK-3666,1 51978U 22025Y   23036.07031449  .00008038  00000-0  50908-3 0  9997,2 51978  53.2163  65.6406 0002828  71.0754 289.0545 15.09802495 51768,6914.94,95.377,538.761,534.849,0.0
51978.0,STARLINK-3666,PAYLOAD,2023-02-05 08:02:33,15.09793098,0.0002461,53.2178,64.4476,74.6918,285.4346,6.0197e-05,6.92e-06,0.0,0 STARLINK-3666,1 51978U 22025Y   23036.33510829  .00000692  00000-0  60197-4 0  9990,2 51978  53.2178  64.4476 0002461  74.6918 285.4346 15.09793098 51804,6914.969,95.377,538.535,535.132,0.0
51978.0,STARLINK-3666,PAYLOAD,2023-02-05 19:09:49,15.09807576,0.0002361,53.2179,62.3628,77.2671,282.8585,0.00034762,5.395e-05,0.0,0 STARLINK-3666,1 51978U 22025Y   23036.79848983  .00005395  00000-0  34762-3 0  9998,2 51978  53.2179  62.3628 0002361  77.2671 282.8585 15.09807576 51875,6914.924,95.376,538.422,535.157,0.0
51978.0,STARLINK-3666,PAYLOAD,2023-02-06 06:17:14,15.09583393,0.0001955,53.2178,60.2804,66.567,293.5528,-0.0040063,-0.00064781,0.0,0 STARLINK-3666,1 51978U 22025Y   23037.26197455 -.00064781  00000-0 -40063-2 0  9998,2 51978  53.2178  60.2804 0001955  66.5670 293.5528 15.09583393 51947,6915.609,95.391,538.826,536.122,0.0
51978.0,STARLINK-3666,PAYLOAD,2023-02-06 07:52:37,15.09510826,0.0002605,53.2179,59.9831,44.7937,315.3265,-0.0053713,-0.00086327,0.0,0 STARLINK-3666,1 51978U 22025Y   23037.32820619 -.00086327  00000-0 -53713-2 0  9996,2 51978  53.2179  59.9831 0002605  44.7937 315.3265 15.09510826 51953,6915.831,95.395,539.497,535.894,0.0
51978.0,STARLINK-3666,PAYLOAD,2023-02-06 19:00:12,15.09205899,0.0002089,53.2182,57.902,67.7596,292.3617,-0.0091273,-0.00144101,0.0,0 STARLINK-3666,1 51978U 22025Y   23037.79181132 -.00144101  00000-0 -91273-2 0  9995,2 51978  53.2182  57.9020 0002089  67.7596 292.3617 15.09205899 52022,6916.762,95.414,540.072,537.182,0.0
51978.0,STARLINK-3666,PAYLOAD,2023-02-07 06:08:01,15.08813539,0.0002152,53.2192,55.8193,66.7852,293.3367,-0.012363,-0.00191725,0.0,0 STARLINK-3666,1 51978U 22025Y   23038.25557779 -.00191725  00000-0 -12363-1 0  9997,2 51978  53.2192  55.8193 0002152  66.7852 293.3367 15.08813539 52091,6917.961,95.439,541.315,538.338,0.0
51978.0,STARLINK-3666,PAYLOAD,2023-02-07 14:00:01,15.08016767,0.0001478,53.2165,54.3503,74.7258,266.1432,-8.4908e-05,-1.607e-05,0.0,0 STARLINK-3666,1 51978U 22025Y   23038.58334491 -.00001607  00000-0 -84908-4 0  9993,2 51978  53.2165  54.3503 0001478  74.7258 266.1432 15.08016767  1306,6920.398,95.49,543.286,541.24,0.0
51978.0,STARLINK-3666,PAYLOAD,2023-02-07 16:00:01,15.08030462,0.0001481,53.2167,53.976,77.1614,356.4181,-0.0020466,-0.00032004,0.0,0 STARLINK-3666,1 51978U 22025Y   23038.66668981 -.00032004  00000-0 -20466-2 0  9998,2 51978  53.2167  53.9760 0001481  77.1614 356.4181 15.08030462 52156,6920.356,95.489,543.246,541.196,0.0
51978.0,STARLINK-3666,PAYLOAD,2023-02-07 22:00:00,15.08003003,0.0001488,53.2169,52.854,92.8129,258.6811,0.0015639,0.00024125,0.0,0 STARLINK-3666,1 51978U 22025Y   23038.91667824  .00024125  00000-0  15639-2 0  9990,2 51978  53.2169  52.8540 0001488  92.8129 258.6811 15.08003003  1309,6920.44,95.491,543.335,541.275,0.0
51978.0,STARLINK-3666,PAYLOAD,2023-02-08 08:00:01,15.08087879,0.0001585,53.217,50.9875,92.1426,2.6408,-0.010365,-0.00158355,0.0,0 STARLINK-3666,1 51978U 22025Y   23039.33334491 -.00158355  00000-0 -10365-1 0  9993,2 51978  53.2170  50.9875 0001585  92.1426   2.6408 15.08087879 52265,6920.18,95.485,543.142,540.948,0.0
51978.0,STARLINK-3666,PAYLOAD,2023-02-08 14:00:01,15.0797721,0.0001509,53.2168,49.8663,98.3022,274.4652,0.001598,0.00024642,0.0,0 STARLINK-3666,1 51978U 22025Y   23039.58334491  .00024642  00000-0  15980-2 0  9998,2 51978  53.2168  49.8663 0001509  98.3022 274.4652 15.07977210  1305,6920.519,95.492,543.428,541.34,0.0
51978.0,STARLINK-3666,PAYLOAD,2023-02-08 22:00:00,15.0797525,0.0001601,53.2171,48.3704,110.0051,273.3424,0.0054228,0.00085024,0.0,0 STARLINK-3666,1 51978U 22025Y   23039.91667824  .00085024  00000-0  54228-2 0  9993,2 51978  53.2171  48.3704 0001601 110.0051 273.3424 15.07975250 52343,6920.525,95.492,543.498,541.282,0.0
51978.0,STARLINK-3666,PAYLOAD,2023-02-09 12:00:00,15.07975406,0.0001681,53.217,45.7569,113.6914,198.2324,0.0022208,0.00034403,0.0,0 STARLINK-3666,1 51978U 22025Y   23040.50001157  .00034403  00000-0  22208-2 0  9999,2 51978  53.2170  45.7569 0001681 113.6914 198.2324 15.07975406  1304,6920.524,95.492,543.553,541.226,0.0
51978.0,STARLINK-3666,PAYLOAD,2023-02-09 22:00:00,15.07977112,0.0001812,53.2171,43.887,123.7464,291.3964,0.0053234,0.00083447,0.0,0 STARLINK-3666,1 51978U 22025Y   23040.91667824  .00083447  00000-0  53234-2 0  9998,2 51978  53.2171  43.8870 0001812 123.7464 291.3964 15.07977112 52494,6920.519,95.492,543.638,541.13,0.0
51978.0,STARLINK-3666,PAYLOAD,2023-02-10 00:00:00,15.08001923,0.000185,53.2174,43.5135,123.4597,24.3178,0.0033819,0.00052714,0.0,0 STARLINK-3666,1 51978U 22025Y   23041.00001157  .00052714  00000-0  33819-2 0  9990,2 51978  53.2174  43.5135 0001850 123.4597  24.3178 15.08001923  1308,6920.443,95.491,543.589,541.028,0.0
51978.0,STARLINK-3666,PAYLOAD,2023-02-10 04:00:00,15.08051349,0.0001728,53.2173,42.7673,120.6536,212.4172,-0.0028589,-0.00044541,0.0,0 STARLINK-3666,1 51978U 22025Y   23041.16667824 -.00044541  00000-0 -28589-2 0  9995,2 51978  53.2173  42.7673 0001728 120.6536 212.4172 15.08051349  1302,6920.292,95.487,543.353,540.961,0.0
51978.0,STARLINK-3666,PAYLOAD,2023-02-10 18:00:00,15.07996774,0.0001527,53.2172,40.1514,118.535,143.1277,0.0027858,0.00043308,0.0,0 STARLINK-3666,1 51978U 22025Y   23041.75001157  .00043308  00000-0  27858-2 0  9997,2 51978  53.2172  40.1514 0001527 118.5350 143.1277 15.07996774 52620,6920.459,95.491,543.381,541.267,0.0
51978.0,STARLINK-3666,PAYLOAD,2023-02-10 22:17:02,15.07997927,0.0001591,53.2171,39.3507,120.4186,30.7867,0.0047454,0.00074301,0.0,0 STARLINK-3666,1 51978U 22025Y   23041.92850694  .00074301  00000-0  47454-2 0  9995,2 51978  53.2171  39.3507 0001591 120.4186  30.7867 15.07997927  1307,6920.455,95.491,543.422,541.219,0.0
51978.0,STARLINK-3666,PAYLOAD,2023-02-11 05:34:10,15.0805426,0.0003038,53.2172,37.9899,160.204,199.907,0.002427,0.00037725,0.0,0 STARLINK-3666,1 51978U 22025Y   23042.23206458  .00037725  00000-0  24270-2 0  9993,2 51978  53.2172  37.9899 0003038 160.2040 199.9070 15.08054260 51602,6920.283,95.487,544.251,540.046,0.0
51978.0,STARLINK-3666,PAYLOAD,2023-02-11 15:07:03,15.07458605,0.0008215,53.218,36.2087,148.8993,211.2486,-0.016694,-0.0024772,0.0,0 STARLINK-3666,1 51978U 22025Y   23042.62989791 -.00247720  00000-0 -16694-1 0  9994,2 51978  53.2180  36.2087 0008215 148.8993 211.2486 15.07458605 52759,6922.106,95.525,549.657,538.284,0.0
51978.0,STARLINK-3666,PAYLOAD,2023-02-12 08:00:01,15.08026527,0.0001427,53.2173,33.0545,89.708,132.3552,-0.0038805,-0.00060181,0.0,0 STARLINK-3666,1 51978U 22025Y   23043.33334491 -.00060181  00000-0 -38805-2 0  9997,2 51978  53.2173  33.0545 0001427  89.7080 132.3552 15.08026527 52867,6920.368,95.489,543.221,541.245,0.0
51978.0,STARLINK-3666,PAYLOAD,2023-02-12 10:12:01,15.08405226,0.0009756,53.2175,32.6447,189.6262,170.4544,0.0056676,0.00090069,0.0,0 STARLINK-3666,1 51978U 22025Y   23043.42501926  .00090069  00000-0  56676-2 0  9998,2 51978  53.2175  32.6447 0009756 189.6262 170.4544 15.08405226 52872,6919.21,95.465,547.825,534.324,0.0
51978.0,STARLINK-3666,PAYLOAD,2023-02-13 00:00:00,15.08032608,0.0001424,53.2175,30.0641,97.245,145.9854,0.001403,0.00021624,0.0,0 STARLINK-3666,1 51978U 22025Y   23044.00001157  .00021624  00000-0  14030-2 0  9993,2 51978  53.2175  30.0641 0001424  97.2450 145.9854 15.08032608 52968,6920.349,95.489,543.2,541.229,0.0
51978.0,STARLINK-3666,PAYLOAD,2023-02-13 14:00:01,15.08000493,0.0001049,53.2176,27.4496,90.5038,81.3117,0.00086634,0.00013215,0.0,0 STARLINK-3666,1 51978U 22025Y   23044.58334491  .00013215  00000-0  86634-3 0  9993,2 51978  53.2176  27.4496 0001049  90.5038  81.3117 15.08000493  1302,6920.448,95.491,543.039,541.587,0.0
51978.0,STARLINK-3666,PAYLOAD,2023-02-13 16:00:00,15.0800182,0.0001049,53.2178,27.0755,94.5427,169.9193,0.0014112,0.00021734,0.0,0 STARLINK-3666,1 51978U 22025Y   23044.66667824  .00021734  00000-0  14112-2 0  9997,2 51978  53.2178  27.0755 0001049  94.5427 169.9193 15.08001820 53066,6920.444,95.491,543.035,541.583,0.0
